NORAD_CAT_ID,OBJECT_NAME,OBJECT_TYPE,EPOCH,MEAN_MOTION,ECCENTRICITY,INCLINATION,RA_OF_ASC_NODE,ARG_OF_PERICENTER,MEAN_ANOMALY,BSTAR,MEAN_MOTION_DOT,MEAN_MOTION_DDOT,TLE_LINE0,TLE_LINE1,TLE_LINE2,SEMIMAJOR_AXIS,PERIOD,APOGEE,PERIGEE,DECAYED
55435.0,STARLINK-5626,PAYLOAD,2023-05-02 12:40:28,14.98336791,0.000317,69.9997,212.0915,268.8756,91.204,6.5939e-05,6.94e-06,0.0,0 STARLINK-5626,1 55435U 23014AW  23122.52811327  .00000694  00000-0  65939-4 0  9996,2 55435  69.9997 212.0915 0003170 268.8756  91.2040 14.98336791 14963,6950.172,96.107,574.24,569.834,0.0
55435.0,STARLINK-5626,PAYLOAD,2023-05-02 15:52:44,14.9834025,0.0003166,69.9996,211.7546,269.4323,90.6473,0.00010064,1.108e-05,0.0,0 STARLINK-5626,1 55435U 23014AW  23122.66162936  .00001108  00000-0  10064-3 0  9995,2 55435  69.9996 211.7546 0003166 269.4323  90.6473 14.98340250 14047,6950.161,96.106,574.227,569.826,0.0
55435.0,STARLINK-5626,PAYLOAD,2023-05-03 11:06:22,14.98323965,0.000349,70.0007,209.7335,276.6395,83.4367,2.6585e-05,2.24e-06,0.0,0 STARLINK-5626,1 55435U 23014AW  23123.46276147  .00000224  00000-0  26585-4 0  9998,2 55435  70.0007 209.7335 0003490 276.6395  83.4367 14.98323965 14164,6950.212,96.107,574.502,569.651,0.0
55435.0,STARLINK-5626,PAYLOAD,2023-05-03 12:42:30,14.98322671,0.0002811,70.0008,209.5662,269.0531,91.0306,1.0077e-05,2.7e-07,0.0,0 STARLINK-5626,1 55435U 23014AW  23123.52952337  .00000027  00000-0  10077-4 0  9997,2 55435  70.0008 209.5662 0002811 269.0531  91.0306 14.98322671 15117,6950.216,96.107,574.034,570.127,0.0
55435.0,STARLINK-5626,PAYLOAD,2023-05-03 15:54:47,14.9832171,0.0002708,70.0011,209.2312,261.3581,98.7271,-1.0175e-05,-2.14e-06,0.0,0 STARLINK-5626,1 55435U 23014AW  23123.66304501 -.00000214  00000-0 -10175-4 0  9995,2 55435  70.0011 209.2312 0002708 261.3581  98.7271 14.98321710 15135,6950.219,96.108,573.966,570.201,0.0
55435.0,STARLINK-5626,PAYLOAD,2023-05-04 11:08:23,14.98328684,0.0002742,69.9997,207.2098,263.2474,96.8373,3.8435e-05,3.66e-06,0.0,0 STARLINK-5626,1 55435U 23014AW  23124.46415874  .00000366  00000-0  38435-4 0  9995,2 55435  69.9997 207.2098 0002742 263.2474  96.8373 14.98328684 14312,6950.197,96.107,573.968,570.156,0.0
55435.0,STARLINK-5626,PAYLOAD,2023-05-04 12:44:31,14.98332972,0.0002683,69.9997,207.0414,261.4028,98.6827,-3.44e-05,-5.03e-06,0.0,0 STARLINK-5626,1 55435U 23014AW  23124.53091786 -.00000503  00000-0 -34400-4 0  9998,2 55435  69.9997 207.0414 0002683 261.4028  98.6827 14.98332972 15265,6950.184,96.107,573.913,570.184,0.0
55435.0,STARLINK-5626,PAYLOAD,2023-05-04 15:56:47,14.98335971,0.0003065,70.0001,206.7049,269.5134,90.5674,-5.2725e-05,-7.22e-06,0.0,0 STARLINK-5626,1 55435U 23014AW  23124.66443595 -.00000722  00000-0 -52725-4 0  9994,2 55435  70.0001 206.7049 0003065 269.5134  90.5674 14.98335971 15281,6950.174,96.107,574.17,569.909,0.0
55435.0,STARLINK-5626,PAYLOAD,2023-05-05 12:46:32,14.98326629,0.0003159,70.0,204.5172,268.6584,91.4213,2.9437e-05,2.58e-06,0.0,0 STARLINK-5626,1 55435U 23014AW  23125.53231963  .00000258  00000-0  29437-4 0  9991,2 55435  70.0000 204.5172 0003159 268.6584  91.4213 14.98326629 14475,6950.203,96.107,574.264,569.873,0.0
55435.0,STARLINK-5626,PAYLOAD,2023-05-05 14:22:40,14.98327209,0.0003153,70.0,204.3489,268.7148,91.365,3.5237e-05,3.27e-06,0.0,0 STARLINK-5626,1 55435U 23014AW  23125.59907920  .00000327  00000-0  35237-4 0  9992,2 55435  70.0000 204.3489 0003153 268.7148  91.3650 14.98327209 15420,6950.202,96.107,574.258,569.875,0.0
55435.0,STARLINK-5626,PAYLOAD,2023-05-06 14:24:41,14.98334598,0.0003179,69.9999,201.8243,271.6275,88.4519,3.478e-05,3.22e-06,0.0,0 STARLINK-5626,1 55435U 23014AW  23126.60047495  .00000322  00000-0  34780-4 0  9994,2 55435  69.9999 201.8243 0003179 271.6275  88.4519 14.98334598 15572,6950.179,96.107,574.253,569.834,0.0
55435.0,STARLINK-5626,PAYLOAD,2023-05-06 22:25:21,14.98334114,0.0003186,69.9999,200.982,273.4238,86.6556,4.1957e-05,4.08e-06,0.0,0 STARLINK-5626,1 55435U 23014AW  23126.93427421  .00000408  00000-0  41957-4 0  9990,2 55435  69.9999 200.9820 0003186 273.4238  86.6556 14.98334114 14686,6950.18,96.107,574.259,569.831,0.0
55435.0,STARLINK-5626,PAYLOAD,2023-05-07 12:50:34,14.98329885,0.0003175,69.9998,199.4671,272.9506,87.129,2.4252e-05,1.96e-06,0.0,0 STARLINK-5626,1 55435U 23014AW  23127.53511698  .00000196  00000-0  24252-4 0  9990,2 55435  69.9998 199.4671 0003175 272.9506  87.1290 14.98329885 15716,6950.193,96.107,574.265,569.852,0.0
55435.0,STARLINK-5626,PAYLOAD,2023-05-07 14:26:42,14.98330716,0.0003171,69.9999,199.2988,273.0066,87.073,3.2861e-05,2.99e-06,0.0,0 STARLINK-5626,1 55435U 23014AW  23127.60187617  .00000299  00000-0  32861-4 0  9997,2 55435  69.9999 199.2988 0003171 273.0066  87.0730 14.98330716 15729,6950.191,96.107,574.26,569.852,0.0
55435.0,STARLINK-5626,PAYLOAD,2023-05-08 04:51:54,14.98328554,0.0003117,69.9999,197.7844,273.5118,86.5684,-3.0478e-05,-4.57e-06,0.0,0 STARLINK-5626,1 55435U 23014AW  23128.20271960 -.00000457  00000-0 -30478-4 0  9999,2 55435  69.9999 197.7844 0003117 273.5118  86.5684 14.98328554 14870,6950.197,96.107,574.229,569.896,0.0
55435.0,STARLINK-5626,PAYLOAD,2023-05-08 14:28:43,14.98331103,0.0003204,69.9997,196.7735,269.5092,90.57,-2.525e-05,-3.94e-06,0.0,0 STARLINK-5626,1 55435U 23014AW  23128.60327726 -.00000394  00000-0 -25250-4 0  9997,2 55435  69.9997 196.7735 0003204 269.5092  90.5700 14.98331103 15878,6950.189,96.107,574.281,569.828,0.0
55435.0,STARLINK-5626,PAYLOAD,2023-05-09 12:54:35,14.98333824,0.0003227,69.9996,194.4172,269.5829,90.4961,4.368e-05,4.28e-06,0.0,0 STARLINK-5626,1 55435U 23014AW  23129.53791231  .00000428  00000-0  43680-4 0  9999,2 55435  69.9996 194.4172 0003227 269.5829  90.4961 14.98333824 15072,6950.181,96.107,574.289,569.803,0.0
55435.0,STARLINK-5626,PAYLOAD,2023-05-10 12:56:36,14.98331251,0.0003113,70.0,191.8949,265.3782,94.7021,3.6418e-05,3.42e-06,0.0,0 STARLINK-5626,1 55435U 23014AW  23130.53931343  .00000342  00000-0  36418-4 0  9997,2 55435  70.0000 191.8949 0003113 265.3782  94.7021 14.98331251 16167,6950.189,96.107,574.218,569.89,0.0
55435.0,STARLINK-5626,PAYLOAD,2023-05-10 20:57:17,14.98330425,0.0003133,69.9999,191.0522,267.2967,92.7833,1.2899e-05,6.1e-07,0.0,0 STARLINK-5626,1 55435U 23014AW  23130.87311428  .00000061  00000-0  12899-4 0  9995,2 55435  69.9999 191.0522 0003133 267.2967  92.7833 14.98330425 16215,6950.192,96.107,574.234,569.879,0.0
55435.0,STARLINK-5626,PAYLOAD,2023-05-11 11:22:29,14.98331935,0.0003099,69.9999,189.5373,263.6206,96.46,-2.2208e-05,-3.58e-06,0.0,0 STARLINK-5626,1 55435U 23014AW  23131.47395311 -.00000358  00000-0 -22208-4 0  9991,2 55435  69.9999 189.5373 0003099 263.6206  96.4600 14.98331935 16308,6950.187,96.107,574.206,569.898,0.0
55435.0,STARLINK-5626,PAYLOAD,2023-05-11 12:58:37,14.98331749,0.0003104,69.9999,189.369,263.9516,96.129,-2.4149e-05,-3.81e-06,0.0,0 STARLINK-5626,1 55435U 23014AW  23131.54071320 -.00000381  00000-0 -24149-4 0  9992,2 55435  69.9999 189.3690 0003104 263.9516  96.1290 14.98331749 15373,6950.187,96.107,574.21,569.895,0.0
55435.0,STARLINK-5626,PAYLOAD,2023-05-11 20:59:18,14.98329214,0.0003125,69.9999,188.5266,270.5105,89.5696,-3.1288e-05,-4.66e-06,0.0,0 STARLINK-5626,1 55435U 23014AW  23131.87451518 -.00000466  00000-0 -31288-4 0  9995,2 55435  69.9999 188.5266 0003125 270.5105  89.5696 14.98329214 16364,6950.195,96.107,574.232,569.888,0.0
55435.0,STARLINK-5626,PAYLOAD,2023-05-12 04:59:58,14.9832755,0.000319,69.9995,187.6852,269.8121,90.2673,-3.4003e-05,-4.99e-06,0.0,0 STARLINK-5626,1 55435U 23014AW  23132.20831643 -.00000499  00000-0 -34003-4 0  9998,2 55435  69.9995 187.6852 0003190 269.8121  90.2673 14.98327550 16413,6950.2,96.107,574.283,569.848,0.0
55435.0,STARLINK-5626,PAYLOAD,2023-05-12 21:01:19,14.98327723,0.0003186,69.9995,186.0015,271.0952,88.9842,-2.9041e-05,-4.4e-06,0.0,0 STARLINK-5626,1 55435U 23014AW  23132.87591710 -.00000440  00000-0 -29041-4 0  9991,2 55435  69.9995 186.0015 0003186 271.0952  88.9842 14.98327723 15579,6950.2,96.107,574.279,569.851,0.0
55435.0,STARLINK-5626,PAYLOAD,2023-05-13 13:02:39,14.98328465,0.0003256,69.9992,184.3185,271.0049,89.0737,1.343e-06,-7.7e-07,0.0,0 STARLINK-5626,1 55435U 23014AW  23133.54351639 -.00000077  00000-0  13430-5 0  9991,2 55435  69.9992 184.3185 0003256 271.0049  89.0737 14.98328465 16615,6950.198,96.107,574.326,569.8,0.0
55435.0,STARLINK-5626,PAYLOAD,2023-05-13 21:03:20,14.98325868,0.0003199,69.9992,183.4768,266.4311,93.6482,3.3612e-05,3.08e-06,0.0,0 STARLINK-5626,1 55435U 23014AW  23133.87731754  .00000308  00000-0  33612-4 0  9996,2 55435  69.9992 183.4768 0003199 266.4311  93.6482 14.98325868 16665,6950.206,96.107,574.294,569.847,0.0
55435.0,STARLINK-5626,PAYLOAD,2023-05-14 03:27:52,14.98327323,0.0003305,69.9989,182.8034,270.7058,89.3722,4.875e-05,4.89e-06,0.0,0 STARLINK-5626,1 55435U 23014AW  23134.14435635  .00000489  00000-0  48750-4 0  9995,2 55435  69.9989 182.8034 0003305 270.7058  89.3722 14.98327323 15762,6950.201,96.107,574.363,569.769,0.0
55435.0,STARLINK-5626,PAYLOAD,2023-05-14 13:04:40,14.98329122,0.0003305,69.9989,181.7935,270.6676,89.4105,5.1001e-05,5.16e-06,0.0,0 STARLINK-5626,1 55435U 23014AW  23134.54491555  .00000516  00000-0  51001-4 0  9996,2 55435  69.9989 181.7935 0003305 270.6676  89.4105 14.98329122 16761,6950.196,96.107,574.358,569.764,0.0
55435.0,STARLINK-5626,PAYLOAD,2023-05-15 05:06:01,14.98331189,0.00033,69.9988,180.1103,270.7303,89.3478,4.5345e-05,4.48e-06,0.0,0 STARLINK-5626,1 55435U 23014AW  23135.21251408  .00000448  00000-0  45345-4 0  9990,2 55435  69.9988 180.1103 0003300 270.7303  89.3478 14.98331189 15928,6950.189,96.107,574.348,569.761,0.0
55435.0,STARLINK-5626,PAYLOAD,2023-05-15 11:30:33,14.98328814,0.0003257,69.9988,179.437,267.9411,92.1375,6.6338e-05,6.99e-06,0.0,0 STARLINK-5626,1 55435U 23014AW  23135.47955469  .00000699  00000-0  66338-4 0  9999,2 55435  69.9988 179.4370 0003257 267.9411  92.1375 14.98328814 16902,6950.197,96.107,574.325,569.798,0.0
